start=new Date('2023-06-14T00:00:00.000Z').valueOf();
sats=[{"ECCENTRICITY":"0.00013200","SITE":"AFETR","TLE_LINE2":"2 54865  43.0033 155.3333 0001320 277.0543  83.0150 15.02538345 25549","DECAY_DATE":null,"ELEMENT_SET_NO":"999","PERIAPSIS":"558.159","ARG_OF_PERICENTER":"277.0543","CLASSIFICATION_TYPE":"U","GP_ID":"233815158","MEAN_MOTION_DOT":"0.00000153","MEAN_ELEMENT_THEORY":"SGP4","INCLINATION":"43.0033","RCS_SIZE":"LARGE","REV_AT_EPOCH":"2554","OBJECT_TYPE":"PAYLOAD","RA_OF_ASC_NODE":"155.3333","CENTER_NAME":"EARTH","BSTAR":"0.00002636800000","EPOCH":"2023-06-13T10:52:19.460064","NORAD_CAT_ID":"54865","COUNTRY_CODE":"US","MEAN_ANOMALY":"83.0150","TLE_LINE1":"1 54865U 22177AX  23164.45300301  .00000153  00000-0  26368-4 0  9997","OBJECT_NAME":"STARLINK-5411","APOAPSIS":"559.990","TIME_SYSTEM":"UTC","MEAN_MOTION_DDOT":"0.0000000000000","LAUNCH_DATE":"2022-12-28","SEMIMAJOR_AXIS":"6937.209","OBJECT_ID":"2022-177AX","MEAN_MOTION":"15.02538345","PERIOD":"95.838","REF_FRAME":"TEME","FILE":"3932012","EPHEMERIS_TYPE":"0"},{"PERIOD":"95.838","REF_FRAME":"TEME","FILE":"3932134","EPHEMERIS_TYPE":"0","SEMIMAJOR_AXIS":"6937.210","MEAN_MOTION":"15.02538168","OBJECT_ID":"2022-177AY","APOAPSIS":"559.950","TIME_SYSTEM":"UTC","MEAN_MOTION_DDOT":"0.0000000000000","LAUNCH_DATE":"2022-12-28","EPOCH":"2023-06-13T10:17:10.054176","BSTAR":"-0.00008919500000","NORAD_CAT_ID":"54866","COUNTRY_CODE":"US","TLE_LINE1":"1 54866U 22177AY  23164.42858859 -.00001408  00000-0 -89195-4 0  9994","OBJECT_NAME":"STARLINK-5398","MEAN_ANOMALY":"88.1889","CENTER_NAME":"EARTH","RA_OF_ASC_NODE":"155.1499","GP_ID":"233842585","MEAN_MOTION_DOT":"-0.00001408","MEAN_ELEMENT_THEORY":"SGP4","INCLINATION":"43.0034","REV_AT_EPOCH":"2664","RCS_SIZE":"LARGE","OBJECT_TYPE":"PAYLOAD","ECCENTRICITY":"0.00012620","SITE":"AFETR","TLE_LINE2":"2 54866  43.0034 155.1499 0001262 271.8808  88.1889 15.02538168 26643","ELEMENT_SET_NO":"999","DECAY_DATE":null,"CLASSIFICATION_TYPE":"U","PERIAPSIS":"558.199","ARG_OF_PERICENTER":"271.8808"},{"CENTER_NAME":"EARTH","RA_OF_ASC_NODE":"155.2432","MEAN_ELEMENT_THEORY":"SGP4","INCLINATION":"43.0035","GP_ID":"233843337","MEAN_MOTION_DOT":"0.00000083","OBJECT_TYPE":"PAYLOAD","REV_AT_EPOCH":"2664","RCS_SIZE":"LARGE","TLE_LINE2":"2 54867  43.0035 155.2432 0001375 273.8272  86.2413 15.02536195 26645","SITE":"AFETR","ECCENTRICITY":"0.00013750","CLASSIFICATION_TYPE":"U","PERIAPSIS":"558.127","ARG_OF_PERICENTER":"273.8272","DECAY_DATE":null,"ELEMENT_SET_NO":"999","FILE":"3932134","REF_FRAME":"TEME","PERIOD":"95.838","EPHEMERIS_TYPE":"0","OBJECT_ID":"2022-177AZ","MEAN_MOTION":"15.02536195","SEMIMAJOR_AXIS":"6937.216","TIME_SYSTEM":"UTC","APOAPSIS":"560.035","LAUNCH_DATE":"2022-12-28","MEAN_MOTION_DDOT":"0.0000000000000","COUNTRY_CODE":"US","NORAD_CAT_ID":"54867","BSTAR":"0.00002124800000","EPOCH":"2023-06-13T10:34:44.845248","OBJECT_NAME":"STARLINK-5396","TLE_LINE1":"1 54867U 22177AZ  23164.44079682  .00000083  00000-0  21248-4 0  9997","MEAN_ANOMALY":"86.2413"},{"RA_OF_ASC_NODE":"155.1065","CENTER_NAME":"EARTH","ELEMENT_SET_NO":"999","DECAY_DATE":null,"CLASSIFICATION_TYPE":"U","PERIAPSIS":"558.184","ARG_OF_PERICENTER":"271.6639","ECCENTRICITY":"0.00012980","TLE_LINE2":"2 54868  43.0036 155.1065 0001298 271.6639  88.4054 15.02535127 25531","SITE":"AFETR","RCS_SIZE":"LARGE","REV_AT_EPOCH":"2553","OBJECT_TYPE":"PAYLOAD","GP_ID":"233815659","MEAN_MOTION_DOT":"0.00000083","MEAN_ELEMENT_THEORY":"SGP4","INCLINATION":"43.0036","OBJECT_ID":"2022-177BA","MEAN_MOTION":"15.02535127","SEMIMAJOR_AXIS":"6937.219","EPHEMERIS_TYPE":"0","PERIOD":"95.838","REF_FRAME":"TEME","FILE":"3932026","OBJECT_NAME":"STARLINK-5379","TLE_LINE1":"1 54868U 22177BA  23164.42303846  .00000083  00000-0  21248-4 0  9998","MEAN_ANOMALY":"88.4054","BSTAR":"0.00002124800000","EPOCH":"2023-06-13T10:09:10.522944","COUNTRY_CODE":"US","NORAD_CAT_ID":"54868","MEAN_MOTION_DDOT":"0.0000000000000","LAUNCH_DATE":"2022-12-28","TIME_SYSTEM":"UTC","APOAPSIS":"559.985"},{"TIME_SYSTEM":"UTC","APOAPSIS":"559.769","MEAN_MOTION_DDOT":"0.0000000000000","LAUNCH_DATE":"2022-12-28","BSTAR":"0.00012670000000","EPOCH":"2023-06-13T10:20:21.356736","COUNTRY_CODE":"US","NORAD_CAT_ID":"54869","TLE_LINE1":"1 54869U 22177BB  23164.43080274  .00001508  00000-0  12670-3 0  9998","MEAN_ANOMALY":"92.8734","OBJECT_NAME":"STARLINK-5402","PERIOD":"95.838","REF_FRAME":"TEME","FILE":"3932134","EPHEMERIS_TYPE":"0","OBJECT_ID":"2022-177BB","MEAN_MOTION":"15.02537029","SEMIMAJOR_AXIS":"6937.213","MEAN_MOTION_DOT":"0.00001508","GP_ID":"233842835","INCLINATION":"43.0033","MEAN_ELEMENT_THEORY":"SGP4","RCS_SIZE":"LARGE","REV_AT_EPOCH":"2664","OBJECT_TYPE":"PAYLOAD","ECCENTRICITY":"0.00009960","TLE_LINE2":"2 54869  43.0033 155.1664 0000996 267.1994  92.8734 15.02537029 26642","SITE":"AFETR","ELEMENT_SET_NO":"999","DECAY_DATE":null,"CLASSIFICATION_TYPE":"U","PERIAPSIS":"558.387","ARG_OF_PERICENTER":"267.1994","CENTER_NAME":"EARTH","RA_OF_ASC_NODE":"155.1664"},{"OBJECT_TYPE":"PAYLOAD","REV_AT_EPOCH":"2554","RCS_SIZE":"LARGE","INCLINATION":"43.0037","MEAN_ELEMENT_THEORY":"SGP4","MEAN_MOTION_DOT":"-0.00000362","GP_ID":"233816430","CLASSIFICATION_TYPE":"U","PERIAPSIS":"558.173","ARG_OF_PERICENTER":"272.5285","DECAY_DATE":null,"ELEMENT_SET_NO":"999","TLE_LINE2":"2 54870  43.0037 155.1317 0001306 272.5285  87.5408 15.02536981 25545","SITE":"AFETR","ECCENTRICITY":"0.00013060","CENTER_NAME":"EARTH","RA_OF_ASC_NODE":"155.1317","LAUNCH_DATE":"2022-12-28","MEAN_MOTION_DDOT":"0.0000000000000","TIME_SYSTEM":"UTC","APOAPSIS":"559.985","TLE_LINE1":"1 54870U 22177BC  23164.42636548 -.00000362  00000-0 -11691-4 0  9992","OBJECT_NAME":"STARLINK-5401","MEAN_ANOMALY":"87.5408","NORAD_CAT_ID":"54870","COUNTRY_CODE":"US","BSTAR":"-0.00001169100000","EPOCH":"2023-06-13T10:13:57.977472","EPHEMERIS_TYPE":"0","FILE":"3932053","REF_FRAME":"TEME","PERIOD":"95.838","MEAN_MOTION":"15.02536981","OBJECT_ID":"2022-177BC","SEMIMAJOR_AXIS":"6937.214"},{"CENTER_NAME":"EARTH","RA_OF_ASC_NODE":"155.2005","RCS_SIZE":"LARGE","REV_AT_EPOCH":"2664","OBJECT_TYPE":"PAYLOAD","GP_ID":"233843837","MEAN_MOTION_DOT":"-0.00000209","INCLINATION":"43.0033","MEAN_ELEMENT_THEORY":"SGP4","DECAY_DATE":null,"ELEMENT_SET_NO":"999","ARG_OF_PERICENTER":"272.8226","PERIAPSIS":"558.135","CLASSIFICATION_TYPE":"U","ECCENTRICITY":"0.00013720","SITE":"AFETR","TLE_LINE2":"2 54871  43.0033 155.2005 0001372 272.8226  87.2459 15.02534385 26649","EPHEMERIS_TYPE":"0","REF_FRAME":"TEME","PERIOD":"95.838","FILE":"3932134","SEMIMAJOR_AXIS":"6937.222","MEAN_MOTION":"15.02534385","OBJECT_ID":"2022-177BD","MEAN_MOTION_DDOT":"0.0000000000000","LAUNCH_DATE":"2022-12-28","APOAPSIS":"560.038","TIME_SYSTEM":"UTC","TLE_LINE1":"1 54871U 22177BD  23164.43524769 -.00000209  00000-0 -37707-6 0  9993","OBJECT_NAME":"STARLINK-5397","MEAN_ANOMALY":"87.2459","EPOCH":"2023-06-13T10:26:45.400416","BSTAR":"-0.00000037707000","COUNTRY_CODE":"US","NORAD_CAT_ID":"54871"},{"FILE":"3932134","REF_FRAME":"TEME","PERIOD":"95.838","EPHEMERIS_TYPE":"0","SEMIMAJOR_AXIS":"6937.207","OBJECT_ID":"2022-177BE","MEAN_MOTION":"15.02539233","APOAPSIS":"559.978","TIME_SYSTEM":"UTC","LAUNCH_DATE":"2022-12-28","MEAN_MOTION_DDOT":"0.0000000000000","COUNTRY_CODE":"US","NORAD_CAT_ID":"54872","BSTAR":"0.00003164800000","EPOCH":"2023-06-13T10:02:46.901760","TLE_LINE1":"1 54872U 22177BE  23164.41859840  .00000224  00000-0  31648-4 0  9994","OBJECT_NAME":"STARLINK-5390","MEAN_ANOMALY":"82.5903","CENTER_NAME":"EARTH","RA_OF_ASC_NODE":"155.0987","INCLINATION":"43.0029","MEAN_ELEMENT_THEORY":"SGP4","MEAN_MOTION_DOT":"0.00000224","GP_ID":"233843588","OBJECT_TYPE":"PAYLOAD","REV_AT_EPOCH":"2664","RCS_SIZE":"LARGE","SITE":"AFETR","TLE_LINE2":"2 54872  43.0029 155.0987 0001307 277.4791  82.5903 15.02539233 26647","ECCENTRICITY":"0.00013070","PERIAPSIS":"558.165","CLASSIFICATION_TYPE":"U","ARG_OF_PERICENTER":"277.4791","ELEMENT_SET_NO":"999","DECAY_DATE":null},{"ECCENTRICITY":"0.00013310","TLE_LINE2":"2 54873  43.0033 155.0900 0001331 273.4777  86.5913 15.02535191 26649","SITE":"AFETR","DECAY_DATE":null,"ELEMENT_SET_NO":"999","PERIAPSIS":"558.161","ARG_OF_PERICENTER":"273.4777","CLASSIFICATION_TYPE":"U","MEAN_MOTION_DOT":"-0.00000306","GP_ID":"233842336","INCLINATION":"43.0033","MEAN_ELEMENT_THEORY":"SGP4","RCS_SIZE":"LARGE","REV_AT_EPOCH":"2664","OBJECT_TYPE":"PAYLOAD","RA_OF_ASC_NODE":"155.0900","CENTER_NAME":"EARTH","EPOCH":"2023-06-13T10:05:58.660512","BSTAR":"-0.00000760200000","COUNTRY_CODE":"US","NORAD_CAT_ID":"54873","TLE_LINE1":"1 54873U 22177BF  23164.42081783 -.00000306  00000-0 -76020-5 0  9996","MEAN_ANOMALY":"86.5913","OBJECT_NAME":"STARLINK-5091","TIME_SYSTEM":"UTC","APOAPSIS":"560.007","MEAN_MOTION_DDOT":"0.0000000000000","LAUNCH_DATE":"2022-12-28","MEAN_MOTION":"15.02535191","OBJECT_ID":"2022-177BF","SEMIMAJOR_AXIS":"6937.219","REF_FRAME":"TEME","PERIOD":"95.838","FILE":"3932134","EPHEMERIS_TYPE":"0"},{"EPHEMERIS_TYPE":"0","REF_FRAME":"TEME","PERIOD":"96.107","FILE":"3932371","OBJECT_ID":"2023-010A","MEAN_MOTION":"14.98331872","SEMIMAJOR_AXIS":"6950.187","MEAN_MOTION_DDOT":"0.0000000000000","LAUNCH_DATE":"2023-01-19","TIME_SYSTEM":"UTC","APOAPSIS":"574.079","MEAN_ANOMALY":"92.8667","TLE_LINE1":"1 55269U 23010A   23164.08968589  .00000738  00000-0  69647-4 0  9996","OBJECT_NAME":"STARLINK-5277","BSTAR":"0.00006964700000","EPOCH":"2023-06-13T02:09:08.860896","COUNTRY_CODE":"US","NORAD_CAT_ID":"55269","CENTER_NAME":"EARTH","RA_OF_ASC_NODE":"47.4086","REV_AT_EPOCH":"2318","RCS_SIZE":"LARGE","OBJECT_TYPE":"PAYLOAD","MEAN_MOTION_DOT":"0.00000738","GP_ID":"233874838","INCLINATION":"70.0007","MEAN_ELEMENT_THEORY":"SGP4","ELEMENT_SET_NO":"999","DECAY_DATE":null,"PERIAPSIS":"570.025","ARG_OF_PERICENTER":"267.2158","CLASSIFICATION_TYPE":"U","ECCENTRICITY":"0.00029170","TLE_LINE2":"2 55269  70.0007  47.4086 0002917 267.2158  92.8667 14.98331872 23180","SITE":"AFWTR"}];
